{"timestamp": "2025-03-02T19:01:21.608120", "data": [ {"OBJECT_NAME": "COSMOS 2436 (723)", "OBJECT_ID": "2007-065C", "EPOCH": "2025-02-28T10:31:45.209280", "MEAN_MOTION": 2.13100128, "ECCENTRICITY": 0.0017241, "INCLINATION": 64.3266, "RA_OF_ASC_NODE": 207.9689, "ARG_OF_PERICENTER": 7.7924, "MEAN_ANOMALY": 21.7511, "EPHEMERIS_TYPE": 0, "CLASSIFICATION_TYPE": "U", "NORAD_CAT_ID": 32395, "ELEMENT_SET_NO": 999, "REV_AT_EPOCH": 13363, "BSTAR": 0, "MEAN_MOTION_DOT": 4.5e-07, "MEAN_MOTION_DDOT": 0, "line1": "1 32395U 07065C   25059.43871770  .00000045  00000+0  00000+0 0  9995", "line2": "2 32395  64.3266 207.9689 0017241   7.7924  21.7511  2.13100128133637"}, {"OBJECT_NAME": "GPS BIIRM-6 (PRN 07)", "OBJECT_ID": "2008-012A", "EPOCH": "2025-03-02T11:34:58.893312", "MEAN_MOTION": 2.00555063, "ECCENTRICITY": 0.0194564, "INCLINATION": 54.4572, "RA_OF_ASC_NODE": 168.7532, "ARG_OF_PERICENTER": 241.6646, "MEAN_ANOMALY": 116.369, "EPHEMERIS_TYPE": 0, "CLASSIFICATION_TYPE": "U", "NORAD_CAT_ID": 32711, "ELEMENT_SET_NO": 999, "REV_AT_EPOCH": 12429, "BSTAR": 0, "MEAN_MOTION_DOT": 3e-07, "MEAN_MOTION_DDOT": 0, "line1": "1 32711U 08012A   25061.48262608  .00000030  00000+0  00000+0 0  9996", "line2": "2 32711  54.4572 168.7532 0194564 241.6646 116.3690  2.00555063124293"}, {"OBJECT_NAME": "GPS BIIRM-8 (PRN 05)", "OBJECT_ID": "2009-043A", "EPOCH": "2025-03-01T17:16:34.938912", "MEAN_MOTION": 2.00553917, "ECCENTRICITY": 0.0053718, "INCLINATION": 55.8844, "RA_OF_ASC_NODE": 46.0678, "ARG_OF_PERICENTER": 74.8599, "MEAN_ANOMALY": 105.6929, "EPHEMERIS_TYPE": 0, "CLASSIFICATION_TYPE": "U", "NORAD_CAT_ID": 35752, "ELEMENT_SET_NO": 999, "REV_AT_EPOCH": 11388, "BSTAR": 0, "MEAN_MOTION_DOT": -3.3e-07, "MEAN_MOTION_DDOT": 0, "line1": "1 35752U 09043A   25060.71984883 -.00000033  00000+0  00000+0 0  9994", "line2": "2 35752  55.8844  46.0678 0053718  74.8599 105.6929  2.00553917113880"}, {"OBJECT_NAME": "COSMOS 2456 (730)", "OBJECT_ID": "2009-070A", "EPOCH": "2025-03-01T08:28:21.662400", "MEAN_MOTION": 2.13103591, "ECCENTRICITY": 0.0006131, "INCLINATION": 64.7394, "RA_OF_ASC_NODE": 87.1359, "ARG_OF_PERICENTER": 301.7167, "MEAN_ANOMALY": 90.1563, "EPHEMERIS_TYPE": 0, "CLASSIFICATION_TYPE": "U", "NORAD_CAT_ID": 36111, "ELEMENT_SET_NO": 999, "REV_AT_EPOCH": 11835, "BSTAR": 0, "MEAN_MOTION_DOT": 4.5e-07, "MEAN_MOTION_DDOT": 0, "line1": "1 36111U 09070A   25060.35302850  .00000045  00000+0  00000+0 0  9994", "line2": "2 36111  64.7394  87.1359 0006131 301.7167  90.1563  2.13103591118353"}, {"OBJECT_NAME": "COSMOS 2457 (733)", "OBJECT_ID": "2009-070B", "EPOCH": "2025-03-01T14:30:38.577888", "MEAN_MOTION": 2.13101016, "ECCENTRICITY": 0.0003011, "INCLINATION": 64.7245, "RA_OF_ASC_NODE": 86.9804, "ARG_OF_PERICENTER": 197.094, "MEAN_ANOMALY": 159.5549, "EPHEMERIS_TYPE": 0, "CLASSIFICATION_TYPE": "U", "NORAD_CAT_ID": 36112, "ELEMENT_SET_NO": 999, "REV_AT_EPOCH": 11839, "BSTAR": 0, "MEAN_MOTION_DOT": 4.3e-07, "MEAN_MOTION_DDOT": 0, "line1": "1 36112U 09070B   25060.60461317  .00000043  00000+0  00000+0 0  9995", "line2": "2 36112  64.7245  86.9804 0003011 197.0940 159.5549  2.13101016118398"}, {"OBJECT_NAME": "COSMOS 2460 (732)", "OBJECT_ID": "2010-007C", "EPOCH": "2025-03-02T05:42:59.251392", "MEAN_MOTION": 2.13106037, "ECCENTRICITY": 0.0002109, "INCLINATION": 65.6773, "RA_OF_ASC_NODE": 330.3938, "ARG_OF_PERICENTER": 358.2719, "MEAN_ANOMALY": 119.7581, "EPHEMERIS_TYPE": 0, "CLASSIFICATION_TYPE": "U", "NORAD_CAT_ID": 36402, "ELEMENT_SET_NO": 999, "REV_AT_EPOCH": 11676, "BSTAR": 0, "MEAN_MOTION_DOT": -4.9e-07, "MEAN_MOTION_DDOT": 0, "line1": "1 36402U 10007C   25061.23818578 -.00000049  00000+0  00000+0 0  9991", "line2": "2 36402  65.6773 330.3938 0002109 358.2719 119.7581  2.13106037116763"}, {"OBJECT_NAME": "GPS BIIF-1  (PRN 25)", "OBJECT_ID": "2010-022A", "EPOCH": "2025-03-02T07:22:38.656704", "MEAN_MOTION": 2.00564399, "ECCENTRICITY": 0.0121708, "INCLINATION": 54.3681, "RA_OF_ASC_NODE": 227.5796, "ARG_OF_PERICENTER": 63.6408, "MEAN_ANOMALY": 300.6457, "EPHEMERIS_TYPE": 0, "CLASSIFICATION_TYPE": "U", "NORAD_CAT_ID": 36585, "ELEMENT_SET_NO": 999, "REV_AT_EPOCH": 10812, "BSTAR": 0, "MEAN_MOTION_DOT": 4.9e-07, "MEAN_MOTION_DDOT": 0, "line1": "1 36585U 10022A   25061.30739186  .00000049  00000+0  00000+0 0  9994", "line2": "2 36585  54.3681 227.5796 0121708  63.6408 300.6457  2.00564399108125"}, {"OBJECT_NAME": "BEIDOU-2 IGSO-1 (C06)", "OBJECT_ID": "2010-036A", "EPOCH": "2025-03-01T15:59:45.434112", "MEAN_MOTION": 1.00255678, "ECCENTRICITY": 0.0045356, "INCLINATION": 54.2685, "RA_OF_ASC_NODE": 167.2362, "ARG_OF_PERICENTER": 209.7108, "MEAN_ANOMALY": 128.2733, "EPHEMERIS_TYPE": 0, "CLASSIFICATION_TYPE": "U", "NORAD_CAT_ID": 36828, "ELEMENT_SET_NO": 999, "REV_AT_EPOCH": 5335, "BSTAR": 0, "MEAN_MOTION_DOT": -1.32e-06, "MEAN_MOTION_DDOT": 0, "line1": "1 36828U 10036A   25060.66649808 -.00000132  00000+0  00000+0 0  9992", "line2": "2 36828  54.2685 167.2362 0045356 209.7108 128.2733  1.00255678 53352"}, {"OBJECT_NAME": "BEIDOU-2 G4 (C04)", "OBJECT_ID": "2010-057A", "EPOCH": "2025-03-02T12:32:26.465856", "MEAN_MOTION": 1.00271448, "ECCENTRICITY": 0.0007746, "INCLINATION": 2.4751, "RA_OF_ASC_NODE": 70.4408, "ARG_OF_PERICENTER": 204.6485, "MEAN_ANOMALY": 233.5719, "EPHEMERIS_TYPE": 0, "CLASSIFICATION_TYPE": "U", "NORAD_CAT_ID": 37210, "ELEMENT_SET_NO": 999, "REV_AT_EPOCH": 5255, "BSTAR": 0, "MEAN_MOTION_DOT": -1.14e-06, "MEAN_MOTION_DDOT": 0, "line1": "1 37210U 10057A   25061.52252854 -.00000114  00000+0  00000+0 0  9998", "line2": "2 37210   2.4751  70.4408 0007746 204.6485 233.5719  1.00271448 52554"}, {"OBJECT_NAME": "BEIDOU-2 IGSO-2 (C07)", "OBJECT_ID": "2010-068A", "EPOCH": "2025-03-01T08:59:20.220576", "MEAN_MOTION": 1.00269772, "ECCENTRICITY": 0.0038928, "INCLINATION": 48.4028, "RA_OF_ASC_NODE": 277.669, "ARG_OF_PERICENTER": 212.0329, "MEAN_ANOMALY": 272.8091, "EPHEMERIS_TYPE": 0, "CLASSIFICATION_TYPE": "U", "NORAD_CAT_ID": 37256, "ELEMENT_SET_NO": 999, "REV_AT_EPOCH": 5205, "BSTAR": 0, "MEAN_MOTION_DOT": -1.7e-06, "MEAN_MOTION_DDOT": 0, "line1": "1 37256U 10068A   25060.37453959 -.00000170  00000+0  00000+0 0  9993", "line2": "2 37256  48.4028 277.6690 0038928 212.0329 272.8091  1.00269772 52052"}, {"OBJECT_NAME": "BEIDOU-2 IGSO-3 (C08)", "OBJECT_ID": "2011-013A", "EPOCH": "2025-03-02T09:13:38.729856", "MEAN_MOTION": 1.00292459, "ECCENTRICITY": 0.003085, "INCLINATION": 61.7398, "RA_OF_ASC_NODE": 44.6245, "ARG_OF_PERICENTER": 184.2144, "MEAN_ANOMALY": 176.5791, "EPHEMERIS_TYPE": 0, "CLASSIFICATION_TYPE": "U", "NORAD_CAT_ID": 37384, "ELEMENT_SET_NO": 999, "REV_AT_EPOCH": 5093, "BSTAR": 0, "MEAN_MOTION_DOT": -1.63e-06, "MEAN_MOTION_DDOT": 0, "line1": "1 37384U 11013A   25061.38447604 -.00000163  00000+0  00000+0 0  9990", "line2": "2 37384  61.7398  44.6245 0030850 184.2144 176.5791  1.00292459 50931"}, {"OBJECT_NAME": "GSAT-8 (GAGAN/PRN 127)", "OBJECT_ID": "2011-022A", "EPOCH": "2025-03-02T10:09:38.735136", "MEAN_MOTION": 1.00271414, "ECCENTRICITY": 0.0007649, "INCLINATION": 0.9077, "RA_OF_ASC_NODE": 87.9425, "ARG_OF_PERICENTER": 206.6615, "MEAN_ANOMALY": 73.3305, "EPHEMERIS_TYPE": 0, "CLASSIFICATION_TYPE": "U", "NORAD_CAT_ID": 37605, "ELEMENT_SET_NO": 999, "REV_AT_EPOCH": 5051, "BSTAR": 0, "MEAN_MOTION_DOT": 8.2e-07, "MEAN_MOTION_DDOT": 0, "line1": "1 37605U 11022A   25061.42336499  .00000082  00000+0  00000+0 0  9999", "line2": "2 37605   0.9077  87.9425 0007649 206.6615  73.3305  1.00271414 50515"}, {"OBJECT_NAME": "BEIDOU-2 IGSO-4 (C09)", "OBJECT_ID": "2011-038A", "EPOCH": "2025-03-01T18:36:33.131808", "MEAN_MOTION": 1.00253793, "ECCENTRICITY": 0.0135602, "INCLINATION": 54.573, "RA_OF_ASC_NODE": 169.8973, "ARG_OF_PERICENTER": 229.2547, "MEAN_ANOMALY": 132.7454, "EPHEMERIS_TYPE": 0, "CLASSIFICATION_TYPE": "U", "NORAD_CAT_ID": 37763, "ELEMENT_SET_NO": 999, "REV_AT_EPOCH": 4991, "BSTAR": 0, "MEAN_MOTION_DOT": -6.3e-07, "MEAN_MOTION_DDOT": 0, "line1": "1 37763U 11038A   25060.77538347 -.00000063  00000+0  00000+0 0  9994", "line2": "2 37763  54.5730 169.8973 0135602 229.2547 132.7454  1.00253793 49912"}, {"OBJECT_NAME": "GSAT0101 (GALILEO-PFM)", "OBJECT_ID": "2011-060A", "EPOCH": "2025-02-27T07:13:27.654528", "MEAN_MOTION": 1.70475564, "ECCENTRICITY": 0.0004396, "INCLINATION": 57.1167, "RA_OF_ASC_NODE": 354.6317, "ARG_OF_PERICENTER": 336.7444, "MEAN_ANOMALY": 23.2369, "EPHEMERIS_TYPE": 0, "CLASSIFICATION_TYPE": "U", "NORAD_CAT_ID": 37846, "ELEMENT_SET_NO": 999, "REV_AT_EPOCH": 8302, "BSTAR": 0, "MEAN_MOTION_DOT": -8.1e-07, "MEAN_MOTION_DDOT": 0, "line1": "1 37846U 11060A   25058.30101452 -.00000081  00000+0  00000+0 0  9990", "line2": "2 37846  57.1167 354.6317 0004396 336.7444  23.2369  1.70475564 83026"}, {"OBJECT_NAME": "GSAT0102 (GALILEO-FM2)", "OBJECT_ID": "2011-060B", "EPOCH": "2025-02-28T02:39:05.294880", "MEAN_MOTION": 1.70475719, "ECCENTRICITY": 0.0005451, "INCLINATION": 57.1127, "RA_OF_ASC_NODE": 354.6102, "ARG_OF_PERICENTER": 335.3568, "MEAN_ANOMALY": 206.6972, "EPHEMERIS_TYPE": 0, "CLASSIFICATION_TYPE": "U", "NORAD_CAT_ID": 37847, "ELEMENT_SET_NO": 999, "REV_AT_EPOCH": 8304, "BSTAR": 0, "MEAN_MOTION_DOT": -8.2e-07, "MEAN_MOTION_DDOT": 0, "line1": "1 37847U 11060B   25059.11047795 -.00000082  00000+0  00000+0 0  9991", "line2": "2 37847  57.1127 354.6102 0005451 335.3568 206.6972  1.70475719 83041"}, {"OBJECT_NAME": "COSMOS 2476 (744)", "OBJECT_ID": "2011-064A", "EPOCH": "2025-03-02T08:24:58.096224", "MEAN_MOTION": 2.13101486, "ECCENTRICITY": 0.0024862, "INCLINATION": 65.0077, "RA_OF_ASC_NODE": 88.8321, "ARG_OF_PERICENTER": 240.7679, "MEAN_ANOMALY": 107.2131, "EPHEMERIS_TYPE": 0, "CLASSIFICATION_TYPE": "U", "NORAD_CAT_ID": 37867, "ELEMENT_SET_NO": 999, "REV_AT_EPOCH": 10375, "BSTAR": 0, "MEAN_MOTION_DOT": 3.7e-07, "MEAN_MOTION_DDOT": 0, "line1": "1 37867U 11064A   25061.35067241  .00000037  00000+0  00000+0 0  9993", "line2": "2 37867  65.0077  88.8321 0024862 240.7679 107.2131  2.13101486103752"}]}